{
  "type": "FeatureCollection",
  "features": [
    {
      "type": "Feature",
      "properties": {
        "norad_id": 40069,
        "name": "METEOR-M 2",
        "group": "weather",
        "lat": 2.2855689287902443,
        "lon": 151.950788282221,
        "alt_km": 819.4514148643566,
        "timestamp": "2025-12-20T07:33:50.443563+00:00",
        "meta_object_name": "METEOR-M 2",
        "meta_object_id": "2014-037A",
        "meta_epoch": "2025-12-19T22:17:02.108832",
        "meta_mean_motion": 14.2138927,
        "meta_eccentricity": 0.00053718,
        "meta_inclination": 98.49,
        "meta_ra_of_asc_node": 331.2374,
        "meta_arg_of_pericenter": 187.0414,
        "meta_mean_anomaly": 173.069,
        "meta_ephemeris_type": 0,
        "meta_classification_type": "U",
        "meta_norad_cat_id": 40069,
        "meta_element_set_no": 999,
        "meta_rev_at_epoch": 59385,
        "meta_bstar": 9.7285837e-05,
        "meta_mean_motion_dot": 1.71e-06,
        "meta_mean_motion_ddot": 0,
        "tle_line1": "1 40069U 14037A   25353.92849663  .00000171  00000+0  97286-4 0  9993",
        "tle_line2": "2 40069  98.4900 331.2374 0005371 187.0414 173.0690 14.21389270593858"
      },
      "geometry": {
        "type": "Point",
        "coordinates": [
          151.950788282221,
          2.2855689287902443
        ]
      }
    },
    {
      "type": "Feature",
      "properties": {
        "norad_id": 40267,
        "name": "HIMAWARI-8",
        "group": "weather",
        "lat": -0.009195496263212572,
        "lon": -16.722621873856813,
        "alt_km": 35783.876532393944,
        "timestamp": "2025-12-20T07:33:50.443576+00:00",
        "meta_object_name": "HIMAWARI-8",
        "meta_object_id": "2014-060A",
        "meta_epoch": "2025-12-19T19:04:03.567072",
        "meta_mean_motion": 1.00271352,
        "meta_eccentricity": 8.593e-05,
        "meta_inclination": 0.0293,
        "meta_ra_of_asc_node": 121.6816,
        "meta_arg_of_pericenter": 172.8726,
        "meta_mean_anomaly": 220.7679,
        "meta_ephemeris_type": 0,
        "meta_classification_type": "U",
        "meta_norad_cat_id": 40267,
        "meta_element_set_no": 999,
        "meta_rev_at_epoch": 4096,
        "meta_bstar": 0,
        "meta_mean_motion_dot": -2.51e-06,
        "meta_mean_motion_ddot": 0,
        "tle_line1": "1 40267U 14060A   25353.79448573 -.00000251  00000+0  00000+0 0  9992",
        "tle_line2": "2 40267   0.0293 121.6816 0000859 172.8726 220.7679  1.00271352 40968"
      },
      "geometry": {
        "type": "Point",
        "coordinates": [
          -16.722621873856813,
          -0.009195496263212572
        ]
      }
    },
    {
      "type": "Feature",
      "properties": {
        "norad_id": 40367,
        "name": "FENGYUN 2G",
        "group": "weather",
        "lat": -3.80849762026565,
        "lon": -58.20959022846062,
        "alt_km": 35779.11567689321,
        "timestamp": "2025-12-20T07:33:50.443588+00:00",
        "meta_object_name": "FENGYUN 2G",
        "meta_object_id": "2014-090A",
        "meta_epoch": "2025-12-19T18:56:11.651136",
        "meta_mean_motion": 1.00261653,
        "meta_eccentricity": 0.00026778,
        "meta_inclination": 5.1853,
        "meta_ra_of_asc_node": 75.0175,
        "meta_arg_of_pericenter": 203.1106,
        "meta_mean_anomaly": 193.8582,
        "meta_ephemeris_type": 0,
        "meta_classification_type": "U",
        "meta_norad_cat_id": 40367,
        "meta_element_set_no": 999,
        "meta_rev_at_epoch": 4020,
        "meta_bstar": 0,
        "meta_mean_motion_dot": -2.79e-06,
        "meta_mean_motion_ddot": 0,
        "tle_line1": "1 40367U 14090A   25353.78902374 -.00000279  00000+0  00000+0 0  9999",
        "tle_line2": "2 40367   5.1853  75.0175 0002677 203.1106 193.8582  1.00261653 40200"
      },
      "geometry": {
        "type": "Point",
        "coordinates": [
          -58.20959022846062,
          -3.80849762026565
        ]
      }
    },
    {
      "type": "Feature",
      "properties": {
        "norad_id": 40732,
        "name": "METEOSAT-11 (MSG-4)",
        "group": "weather",
        "lat": 1.7629140230844826,
        "lon": -148.15872826446127,
        "alt_km": 35782.8630388427,
        "timestamp": "2025-12-20T07:33:50.443601+00:00",
        "meta_object_name": "METEOSAT-11 (MSG-4)",
        "meta_object_id": "2015-034A",
        "meta_epoch": "2025-12-19T20:09:19.816416",
        "meta_mean_motion": 1.00269713,
        "meta_eccentricity": 8.424e-05,
        "meta_inclination": 2.7539,
        "meta_ra_of_asc_node": 71.9834,
        "meta_arg_of_pericenter": 136.058,
        "meta_mean_anomaly": 192.179,
        "meta_ephemeris_type": 0,
        "meta_classification_type": "U",
        "meta_norad_cat_id": 40732,
        "meta_element_set_no": 999,
        "meta_rev_at_epoch": 541,
        "meta_bstar": 0,
        "meta_mean_motion_dot": 8.3e-07,
        "meta_mean_motion_ddot": 0,
        "tle_line1": "1 40732U 15034A   25353.83981269  .00000083  00000+0  00000+0 0  9992",
        "tle_line2": "2 40732   2.7539  71.9834 0000842 136.0580 192.1790  1.00269713  5411"
      },
      "geometry": {
        "type": "Point",
        "coordinates": [
          -148.15872826446127,
          1.7629140230844826
        ]
      }
    },
    {
      "type": "Feature",
      "properties": {
        "norad_id": 41105,
        "name": "ELEKTRO-L 2",
        "group": "weather",
        "lat": 5.640732219788099,
        "lon": -171.77432725235326,
        "alt_km": 35786.1266601388,
        "timestamp": "2025-12-20T07:33:50.443614+00:00",
        "meta_object_name": "ELEKTRO-L 2",
        "meta_object_id": "2015-074A",
        "meta_epoch": "2025-12-19T09:46:17.993280",
        "meta_mean_motion": 1.00272637,
        "meta_eccentricity": 0.0003545,
        "meta_inclination": 6.2415,
        "meta_ra_of_asc_node": 72.7491,
        "meta_arg_of_pericenter": 209.2952,
        "meta_mean_anomaly": 298.3067,
        "meta_ephemeris_type": 0,
        "meta_classification_type": "U",
        "meta_norad_cat_id": 41105,
        "meta_element_set_no": 999,
        "meta_rev_at_epoch": 3670,
        "meta_bstar": 0,
        "meta_mean_motion_dot": -9.8e-07,
        "meta_mean_motion_ddot": 0,
        "tle_line1": "1 41105U 15074A   25353.40715270 -.00000098  00000+0  00000+0 0  9998",
        "tle_line2": "2 41105   6.2415  72.7491 0003545 209.2952 298.3067  1.00272637 36706"
      },
      "geometry": {
        "type": "Point",
        "coordinates": [
          -171.77432725235326,
          5.640732219788099
        ]
      }
    },
    {
      "type": "Feature",
      "properties": {
        "norad_id": 41752,
        "name": "INSAT-3DR",
        "group": "weather",
        "lat": -0.04543575858251741,
        "lon": -83.39528917124645,
        "alt_km": 35726.45721788967,
        "timestamp": "2025-12-20T07:33:50.443626+00:00",
        "meta_object_name": "INSAT-3DR",
        "meta_object_id": "2016-054A",
        "meta_epoch": "2025-12-19T19:07:12.495360",
        "meta_mean_motion": 1.00271614,
        "meta_eccentricity": 0.00141341,
        "meta_inclination": 0.1091,
        "meta_ra_of_asc_node": 86.4186,
        "meta_arg_of_pericenter": 185.1345,
        "meta_mean_anomaly": 177.8779,
        "meta_ephemeris_type": 0,
        "meta_classification_type": "U",
        "meta_norad_cat_id": 41752,
        "meta_element_set_no": 999,
        "meta_rev_at_epoch": 3402,
        "meta_bstar": 0,
        "meta_mean_motion_dot": -5.3e-07,
        "meta_mean_motion_ddot": 0,
        "tle_line1": "1 41752U 16054A   25353.79667240 -.00000053  00000+0  00000+0 0  9991",
        "tle_line2": "2 41752   0.1091  86.4186 0014134 185.1345 177.8779  1.00271614 34022"
      },
      "geometry": {
        "type": "Point",
        "coordinates": [
          -83.39528917124645,
          -0.04543575858251741
        ]
      }
    },
    {
      "type": "Feature",
      "properties": {
        "norad_id": 41836,
        "name": "HIMAWARI-9",
        "group": "weather",
        "lat": -0.008718196967819324,
        "lon": -16.629055522918623,
        "alt_km": 35778.68036252386,
        "timestamp": "2025-12-20T07:33:50.443638+00:00",
        "meta_object_name": "HIMAWARI-9",
        "meta_object_id": "2016-064A",
        "meta_epoch": "2025-12-19T19:04:03.567072",
        "meta_mean_motion": 1.00277553,
        "meta_eccentricity": 0.00015136,
        "meta_inclination": 0.0184,
        "meta_ra_of_asc_node": 353.8335,
        "meta_arg_of_pericenter": 326.3623,
        "meta_mean_anomaly": 195.209,
        "meta_ephemeris_type": 0,
        "meta_classification_type": "U",
        "meta_norad_cat_id": 41836,
        "meta_element_set_no": 999,
        "meta_rev_at_epoch": 3341,
        "meta_bstar": 0,
        "meta_mean_motion_dot": 0,
        "meta_mean_motion_ddot": 0,
        "tle_line1": "1 41836U 16064A   25353.79448573  .00000000  00000+0  00000+0 0  9992",
        "tle_line2": "2 41836   0.0184 353.8335 0001513 326.3623 195.2090  1.00277553 33419"
      },
      "geometry": {
        "type": "Point",
        "coordinates": [
          -16.629055522918623,
          -0.008718196967819324
        ]
      }
    }
  ]
}